      2.10          N: GNSS NAV DATA                        RINEX VERSION / TYPE
fic2rin                                 10/08/2021 00:17:34 PGM / RUN BY / DATE
                                                            END OF HEADER
25 21 10  7 22  0  0.0 2.207360230386e-04 6.139089236967e-12 0.000000000000e+00
    1.050000000000e+02 7.075000000000e+01 5.090926343231e-09 7.285437511144e-02
    3.764405846596e-06 9.865877567790e-03 2.074986696243e-06 5.153769220352e+03
    4.248000000000e+05-5.587935447693e-09-1.643099247622e+00 1.508742570877e-07
    9.590131629305e-01 3.370312500000e+02 9.627808616303e-01-8.808938356212e-09
    1.514348792991e-10 1.000000000000e+00 2.178000000000e+03 0.000000000000e+00
    3.400000000000e+00 0.000000000000e+00 5.587935447693e-09 1.050000000000e+02
    4.176000000000e+05 4.000000000000e+00
24 21 10  7 22  0  0.0 2.496722154319e-04 6.707523425575e-12 0.000000000000e+00
    7.500000000000e+01 6.000000000000e+01 4.851630661320e-09 1.925676358984e+00
    3.121793270111e-06 1.170856563840e-02 1.301430165768e-05 5.153722833633e+03
    4.248000000000e+05-3.073364496231e-07-2.760339723824e+00-6.332993507385e-08
    9.352183790508e-01 1.165937500000e+02 7.632311201883e-01-8.161411384115e-09
    5.714523747137e-12 1.000000000000e+00 2.178000000000e+03 0.000000000000e+00
    3.400000000000e+00 0.000000000000e+00 2.793967723846e-09 7.500000000000e+01
    4.176000000000e+05 4.000000000000e+00
17 21 10  7 22  0  0.0 5.158800631762e-04 5.456968210638e-12 0.000000000000e+00
    5.500000000000e+01-1.237500000000e+02 4.031596503605e-09-2.439933337154e+00
   -6.278976798058e-06 1.362044631969e-02 6.394460797310e-06 5.153676294327e+03
    4.248000000000e+05 2.365559339523e-07-5.307560564630e-01-2.980232238770e-08
    9.811590113825e-01 2.669062500000e+02-1.552497879745e+00-7.774966715715e-09
   -4.846630453041e-10 1.000000000000e+00 2.178000000000e+03 0.000000000000e+00
    2.400000000000e+00 0.000000000000e+00-1.117587089539e-08 5.500000000000e+01
    4.176000000000e+05 4.000000000000e+00
14 21 10  7 22  0  0.0-1.436518505216e-05-7.730704965070e-12 0.000000000000e+00
    1.240000000000e+02 6.768750000000e+01 5.115213069156e-09 1.686886814178e-01
    3.315508365631e-06 1.113297301345e-03 2.464279532433e-06 5.153640924454e+03
    4.248000000000e+05-4.097819328308e-08-1.597169151226e+00 2.980232238770e-08
    9.550541745256e-01 3.280312500000e+02 3.130801025835e+00-8.673575574952e-09
    1.242908915002e-10 1.000000000000e+00 2.178000000000e+03 0.000000000000e+00
    2.400000000000e+00 0.000000000000e+00-7.916241884232e-09 3.800000000000e+02
    4.176000000000e+05 4.000000000000e+00
11 21 10  7 22  0  0.0 2.132682129741e-05 1.023181539495e-12 0.000000000000e+00
    1.110000000000e+02 5.937500000000e-01 4.056240387265e-09-1.905312861163e+00
    1.471489667892e-07 4.604269051924e-04 1.277402043343e-05 5.153719491959e+03
    4.248000000000e+05 2.980232238770e-08 5.126426700135e-01-2.235174179077e-08
    9.609332443724e-01 1.329375000000e+02 2.248159736763e+00-7.804967965387e-09
    4.264463346301e-10 1.000000000000e+00 2.178000000000e+03 0.000000000000e+00
    3.072000000000e+03 6.300000000000e+01-8.381903171539e-09 3.670000000000e+02
    4.176000000000e+05 4.000000000000e+00
23 21 10  7 22  0  0.0 4.793796688318e-05-4.774847184308e-12 0.000000000000e+00
    2.310000000000e+02 4.234375000000e+01 4.904847163715e-09 1.117529693643e+00
    2.199783921242e-06 1.768469461240e-03 4.833564162254e-06 5.153668094635e+03
    4.248000000000e+05 5.401670932770e-08 1.475126095529e+00 4.097819328308e-08
    9.653387314672e-01 2.895625000000e+02 2.715939696373e+00-8.350704983239e-09
    4.650193699233e-10 1.000000000000e+00 2.178000000000e+03 0.000000000000e+00
    2.400000000000e+00 0.000000000000e+00-8.381903171539e-09 9.990000000000e+02
    4.176000000000e+05 4.000000000000e+00
18 21 10  7 22  0  0.0 3.131763078272e-04-4.888534022029e-12 0.000000000000e+00
    2.160000000000e+02 3.125000000000e-02 3.948735909272e-09 1.856885720138e+00
    5.029141902924e-08 2.006691182032e-03 1.342222094536e-05 5.153650344849e+03
    4.248000000000e+05-8.381903171539e-08 4.756042935707e-01 9.313225746155e-09
    9.696880000832e-01 1.255937500000e+02 2.985606508872e+00-7.686034439900e-09
    3.317995350682e-10 1.000000000000e+00 2.178000000000e+03 0.000000000000e+00
    2.400000000000e+00 0.000000000000e+00-8.381903171539e-09 7.280000000000e+02
    4.176000000000e+05 4.000000000000e+00
28 21 10  7 22  0  0.0 4.868325777352e-04-7.162270776462e-12 0.000000000000e+00
    9.700000000000e+01 6.365625000000e+01 4.615549399016e-09-1.978102898600e+00
    3.527849912643e-06 1.747589407023e-02 2.074986696243e-06 5.153715913773e+03
    4.248000000000e+05 9.499490261078e-08-1.545690987754e+00 3.911554813385e-07
    9.707207675821e-01 3.456562500000e+02-1.328705862412e+00-8.284273644678e-09
    1.142904749427e-10 1.000000000000e+00 2.178000000000e+03 0.000000000000e+00
    4.850000000000e+00 6.300000000000e+01-1.117587089539e-08 9.700000000000e+01
    4.176000000000e+05 4.000000000000e+00
28 21 10  7 21 59 44.0 4.868349060416e-04-7.048583938740e-12 0.000000000000e+00
    3.000000000000e+00 6.365625000000e+01 4.615549399016e-09-1.980436614277e+00
    3.527849912643e-06 1.747588638682e-02 2.074986696243e-06 5.153715909958e+03
    4.247840000000e+05 9.499490261078e-08-1.545690863406e+00 3.911554813385e-07
    9.707207763596e-01 3.456562500000e+02-1.328705830228e+00-8.284273644678e-09
    1.142904749427e-10 1.000000000000e+00 2.178000000000e+03 0.000000000000e+00
    2.400000000000e+00 6.300000000000e+01-1.117587089539e-08 3.000000000000e+00
    4.182900000000e+05 4.000000000000e+00
25 21 10  7 21 59 44.0 2.207369543612e-04 6.139089236967e-12 0.000000000000e+00
    3.000000000000e+00 7.075000000000e+01 5.090926343231e-09 7.052030833390e-02
    3.764405846596e-06 9.865882922895e-03 2.074986696243e-06 5.153769214630e+03
    4.247840000000e+05-5.587935447693e-09-1.643099105719e+00 1.508742570877e-07
    9.590131643934e-01 3.370312500000e+02 9.627813502449e-01-8.808938356212e-09
    1.514348792991e-10 1.000000000000e+00 2.178000000000e+03 0.000000000000e+00
    2.400000000000e+00 0.000000000000e+00 5.587935447693e-09 3.000000000000e+00
    4.187400000000e+05 4.000000000000e+00
24 21 10  7 21 59 44.0 2.496712841094e-04 6.707523425575e-12 0.000000000000e+00
    5.100000000000e+01 6.000000000000e+01 4.851630661320e-09 1.923342078621e+00
    3.121793270111e-06 1.170856214594e-02 1.301430165768e-05 5.153722835541e+03
    4.247840000000e+05-3.073364496231e-07-2.760339584846e+00-6.332993507385e-08
    9.352183658845e-01 1.165937500000e+02 7.632316717084e-01-8.161411384115e-09
    5.714523747137e-12 1.000000000000e+00 2.178000000000e+03 0.000000000000e+00
    2.400000000000e+00 0.000000000000e+00 2.793967723846e-09 5.100000000000e+01
    4.207800000000e+05 4.000000000000e+00
25 21 10  7 23 59 44.0 2.207811921835e-04 6.139089236967e-12 0.000000000000e+00
    6.000000000000e+00 7.493750000000e+01 5.026280793341e-09 1.120548842031e+00
    3.922730684280e-06 9.867751155980e-03 2.902001142502e-06 5.153773187637e+03
    4.319840000000e+05-1.415610313416e-07-1.643162571494e+00 1.825392246246e-07
    9.590142367124e-01 3.223750000000e+02 9.628777126588e-01-8.770008163185e-09
    1.832219176426e-10 1.000000000000e+00 2.178000000000e+03 0.000000000000e+00
    2.400000000000e+00 0.000000000000e+00 5.587935447693e-09 6.000000000000e+00
    4.248000000000e+05 4.000000000000e+00
24 21 10  7 23 59 44.0 2.497192472219e-04 6.707523425575e-12 0.000000000000e+00
    5.200000000000e+01 5.450000000000e+01 4.786270795962e-09 2.973591629981e+00
    2.771615982056e-06 1.171027321834e-02 1.362711191177e-05 5.153719047546e+03
    4.319840000000e+05-3.352761268616e-08-2.760397330612e+00-1.713633537292e-07
    9.352196079020e-01 1.026562500000e+02 7.631360114952e-01-7.918186967127e-09
    3.000124967247e-11 1.000000000000e+00 2.178000000000e+03 0.000000000000e+00
    2.400000000000e+00 0.000000000000e+00 2.793967723846e-09 5.200000000000e+01
    4.248000000000e+05 4.000000000000e+00
28 21 10  7 23 59 44.0 4.867836833000e-04-7.048583938740e-12 0.000000000000e+00
    4.000000000000e+00 6.128125000000e+01 4.940920094869e-09-9.303551682957e-01
    3.298744559288e-06 1.747600699309e-02 2.734363079071e-06 5.153713405609e+03
    4.319840000000e+05-3.147870302200e-07-1.545753937119e+00-6.332993507385e-08
    9.707195211759e-01 3.358125000000e+02-1.328628516471e+00-8.873941063836e-09
    2.653681965077e-10 1.000000000000e+00 2.178000000000e+03 0.000000000000e+00
    2.400000000000e+00 6.300000000000e+01-1.117587089539e-08 4.000000000000e+00
    4.248000000000e+05 4.000000000000e+00
 2 21 10  8  0  0  0.0-6.363270804286e-04-1.932676241267e-12 0.000000000000e+00
    8.500000000000e+01-4.590625000000e+01 3.886590463522e-09 2.866124190331e+00
   -2.156943082809e-06 2.031720650848e-02 1.322291791439e-05 5.153775520325e+03
    4.320000000000e+05 2.533197402954e-07 3.792964026462e-01-2.980232238770e-08
    9.644813561427e-01 1.209687500000e+02-1.489161925526e+00-7.336734175856e-09
    1.596495071856e-10 1.000000000000e+00 2.178000000000e+03 0.000000000000e+00
    2.400000000000e+00 0.000000000000e+00-1.769512891769e-08 8.500000000000e+01
    4.248000000000e+05 4.000000000000e+00
 1 21 10  8  0  0  0.0 5.457233637571e-04-1.080024958355e-11 0.000000000000e+00
    7.600000000000e+01-2.362500000000e+01 3.495502744577e-09 2.618229253221e+00
   -1.255422830582e-06 1.105788454879e-02 1.458637416363e-05 5.153680904388e+03
    4.320000000000e+05 2.793967723846e-08 4.658069234595e-01-1.229345798492e-07
    9.859504820979e-01 1.075625000000e+02 8.885765876387e-01-7.361378059515e-09
    3.603721538038e-10 1.000000000000e+00 2.178000000000e+03 0.000000000000e+00
    2.400000000000e+00 0.000000000000e+00 5.122274160385e-09 7.600000000000e+01
    4.248000000000e+05 4.000000000000e+00
